EARTHCARE               
1 59908U 24101A   24278.87685871  .00041397  00000+0  56690-3 0  9994
2 59908  96.9924  44.2257 0002334  82.0715 278.0806 15.57286312 20048
